start=new Date('2022-11-28T00:00:00.000Z').valueOf();
sats=[{"MEAN_ANOMALY":"324.1057","OBJECT_ID":"2022-016AL","CLASSIFICATION_TYPE":"U","EPHEMERIS_TYPE":"0","ELEMENT_SET_NO":"999","RCS_SIZE":"LARGE","ARG_OF_PERICENTER":"36.0113","OBJECT_NAME":"STARLINK-3501","REF_FRAME":"TEME","INCLINATION":"53.2177","LAUNCH_DATE":"2022-02-21","MEAN_MOTION":"15.08837142","ECCENTRICITY":"0.00026340","BSTAR":"-0.00001709200000","TLE_LINE2":"2 51748  53.2177 286.2656 0002634  36.0113 324.1057 15.08837142 42878","MEAN_MOTION_DOT":"-0.00000561","PERIAPSIS":"537.932","NORAD_CAT_ID":"51748","TLE_LINE1":"1 51748U 22016AL  22331.88901813 -.00000561  00000-0 -17092-4 0  9992","SITE":"AFETR","DECAY_DATE":null,"MEAN_MOTION_DDOT":"0.0000000000000","SEMIMAJOR_AXIS":"6917.889","PERIOD":"95.438","FILE":"3671921","OBJECT_TYPE":"PAYLOAD","CENTER_NAME":"EARTH","EPOCH":"2022-11-27T21:20:11.166432","TIME_SYSTEM":"UTC","MEAN_ELEMENT_THEORY":"SGP4","APOAPSIS":"541.576","REV_AT_EPOCH":"4287","COUNTRY_CODE":"US","GP_ID":"218992419","RA_OF_ASC_NODE":"286.2656"},{"PERIAPSIS":"538.007","MEAN_MOTION_DOT":"-0.00000319","TLE_LINE2":"2 51749  53.2164 297.4098 0002544  38.2605 321.8567 15.08832962 42694","BSTAR":"-0.00000190730000","ECCENTRICITY":"0.00025440","MEAN_MOTION":"15.08832962","LAUNCH_DATE":"2022-02-21","INCLINATION":"53.2164","REF_FRAME":"TEME","OBJECT_NAME":"STARLINK-3451","ARG_OF_PERICENTER":"38.2605","RCS_SIZE":"LARGE","ELEMENT_SET_NO":"999","CLASSIFICATION_TYPE":"U","EPHEMERIS_TYPE":"0","OBJECT_ID":"2022-016AM","MEAN_ANOMALY":"321.8567","RA_OF_ASC_NODE":"297.4098","COUNTRY_CODE":"US","GP_ID":"218991668","REV_AT_EPOCH":"4269","APOAPSIS":"541.527","MEAN_ELEMENT_THEORY":"SGP4","TIME_SYSTEM":"UTC","EPOCH":"2022-11-27T15:14:35.899008","CENTER_NAME":"EARTH","OBJECT_TYPE":"PAYLOAD","PERIOD":"95.438","FILE":"3671921","SEMIMAJOR_AXIS":"6917.902","DECAY_DATE":null,"SITE":"AFETR","MEAN_MOTION_DDOT":"0.0000000000000","TLE_LINE1":"1 51749U 22016AM  22331.63513772 -.00000319  00000-0 -19073-5 0  9992","NORAD_CAT_ID":"51749"},{"MEAN_ELEMENT_THEORY":"SGP4","APOAPSIS":"541.821","REV_AT_EPOCH":"4280","TIME_SYSTEM":"UTC","EPOCH":"2022-11-27T10:01:52.518144","OBJECT_TYPE":"PAYLOAD","CENTER_NAME":"EARTH","RA_OF_ASC_NODE":"288.3801","COUNTRY_CODE":"US","GP_ID":"218959913","SEMIMAJOR_AXIS":"6917.861","DECAY_DATE":null,"SITE":"AFETR","MEAN_MOTION_DDOT":"0.0000000000000","TLE_LINE1":"1 51750U 22016AN  22331.41796896  .00000932  00000-0  76649-4 0  9990","NORAD_CAT_ID":"51750","PERIOD":"95.437","FILE":"3671616","TLE_LINE2":"2 51750  53.2170 288.3801 0003029  33.5894 326.5290 15.08846503 42805","MEAN_MOTION_DOT":"0.00000932","BSTAR":"0.00007664900000","MEAN_MOTION":"15.08846503","ECCENTRICITY":"0.00030290","INCLINATION":"53.2170","LAUNCH_DATE":"2022-02-21","PERIAPSIS":"537.630","ELEMENT_SET_NO":"999","OBJECT_ID":"2022-016AN","EPHEMERIS_TYPE":"0","CLASSIFICATION_TYPE":"U","MEAN_ANOMALY":"326.5290","REF_FRAME":"TEME","OBJECT_NAME":"STARLINK-3505","RCS_SIZE":"LARGE","ARG_OF_PERICENTER":"33.5894"},{"PERIOD":"95.437","FILE":"3671616","DECAY_DATE":null,"SITE":"AFETR","MEAN_MOTION_DDOT":"0.0000000000000","SEMIMAJOR_AXIS":"6917.866","NORAD_CAT_ID":"51751","TLE_LINE1":"1 51751U 22016AP  22331.29652984 -.00000134  00000-0  97117-5 0  9995","COUNTRY_CODE":"US","GP_ID":"218958168","RA_OF_ASC_NODE":"288.9276","EPOCH":"2022-11-27T07:07:00.178176","TIME_SYSTEM":"UTC","REV_AT_EPOCH":"4278","APOAPSIS":"541.469","MEAN_ELEMENT_THEORY":"SGP4","CENTER_NAME":"EARTH","OBJECT_TYPE":"PAYLOAD","OBJECT_NAME":"STARLINK-3506","REF_FRAME":"TEME","ARG_OF_PERICENTER":"42.0028","RCS_SIZE":"LARGE","CLASSIFICATION_TYPE":"U","EPHEMERIS_TYPE":"0","OBJECT_ID":"2022-016AP","ELEMENT_SET_NO":"999","MEAN_ANOMALY":"318.1157","PERIAPSIS":"537.994","BSTAR":"0.00000971170000","MEAN_MOTION_DOT":"-0.00000134","TLE_LINE2":"2 51751  53.2161 288.9276 0002512  42.0028 318.1157 15.08844581 42788","LAUNCH_DATE":"2022-02-21","INCLINATION":"53.2161","ECCENTRICITY":"0.00025120","MEAN_MOTION":"15.08844581"},{"INCLINATION":"53.2175","LAUNCH_DATE":"2022-02-21","MEAN_MOTION":"15.08837045","ECCENTRICITY":"0.00024330","BSTAR":"-0.00006803000000","MEAN_MOTION_DOT":"-0.00001371","TLE_LINE2":"2 51752  53.2175 286.3178 0002433  30.4114 329.7019 15.08837045 42878","PERIAPSIS":"538.071","MEAN_ANOMALY":"329.7019","OBJECT_ID":"2022-016AQ","CLASSIFICATION_TYPE":"U","EPHEMERIS_TYPE":"0","ELEMENT_SET_NO":"999","RCS_SIZE":"LARGE","ARG_OF_PERICENTER":"30.4114","OBJECT_NAME":"STARLINK-3511","REF_FRAME":"TEME","OBJECT_TYPE":"PAYLOAD","CENTER_NAME":"EARTH","TIME_SYSTEM":"UTC","EPOCH":"2022-11-27T21:04:17.543712","APOAPSIS":"541.438","MEAN_ELEMENT_THEORY":"SGP4","REV_AT_EPOCH":"4287","COUNTRY_CODE":"US","GP_ID":"218992919","RA_OF_ASC_NODE":"286.3178","NORAD_CAT_ID":"51752","TLE_LINE1":"1 51752U 22016AQ  22331.87798083 -.00001371  00000-0 -68030-4 0  9997","MEAN_MOTION_DDOT":"0.0000000000000","DECAY_DATE":null,"SITE":"AFETR","SEMIMAJOR_AXIS":"6917.889","FILE":"3671921","PERIOD":"95.438"},{"OBJECT_NAME":"STARLINK-3507","REF_FRAME":"TEME","ARG_OF_PERICENTER":"25.4253","RCS_SIZE":"LARGE","EPHEMERIS_TYPE":"0","CLASSIFICATION_TYPE":"U","OBJECT_ID":"2022-016AR","ELEMENT_SET_NO":"999","MEAN_ANOMALY":"334.6883","PERIAPSIS":"537.731","BSTAR":"-0.00004968500000","MEAN_MOTION_DOT":"-0.00001079","TLE_LINE2":"2 51753  53.2163 286.2840 0002927  25.4253 334.6883 15.08836435 42873","LAUNCH_DATE":"2022-02-21","INCLINATION":"53.2163","ECCENTRICITY":"0.00029270","MEAN_MOTION":"15.08836435","PERIOD":"95.438","FILE":"3671921","SITE":"AFETR","DECAY_DATE":null,"MEAN_MOTION_DDOT":"0.0000000000000","SEMIMAJOR_AXIS":"6917.891","NORAD_CAT_ID":"51753","TLE_LINE1":"1 51753U 22016AR  22331.88534160 -.00001079  00000-0 -49685-4 0  9993","COUNTRY_CODE":"US","GP_ID":"218991169","RA_OF_ASC_NODE":"286.2840","TIME_SYSTEM":"UTC","EPOCH":"2022-11-27T21:14:53.514240","REV_AT_EPOCH":"4287","MEAN_ELEMENT_THEORY":"SGP4","APOAPSIS":"541.781","CENTER_NAME":"EARTH","OBJECT_TYPE":"PAYLOAD"},{"ARG_OF_PERICENTER":"29.5874","RCS_SIZE":"LARGE","REF_FRAME":"TEME","OBJECT_NAME":"STARLINK-3457","MEAN_ANOMALY":"330.5288","ELEMENT_SET_NO":"999","CLASSIFICATION_TYPE":"U","EPHEMERIS_TYPE":"0","OBJECT_ID":"2022-016AS","PERIAPSIS":"537.669","ECCENTRICITY":"0.00030230","MEAN_MOTION":"15.08835274","LAUNCH_DATE":"2022-02-21","INCLINATION":"53.2178","TLE_LINE2":"2 51754  53.2178 286.3402 0003023  29.5874 330.5288 15.08835274 42871","MEAN_MOTION_DOT":"-0.00002117","BSTAR":"-0.00011491000000","FILE":"3671921","PERIOD":"95.438","TLE_LINE1":"1 51754U 22016AS  22331.87157641 -.00002117  00000-0 -11491-3 0  9995","NORAD_CAT_ID":"51754","SEMIMAJOR_AXIS":"6917.895","SITE":"AFETR","DECAY_DATE":null,"MEAN_MOTION_DDOT":"0.0000000000000","RA_OF_ASC_NODE":"286.3402","COUNTRY_CODE":"US","GP_ID":"218991918","CENTER_NAME":"EARTH","OBJECT_TYPE":"PAYLOAD","REV_AT_EPOCH":"4287","MEAN_ELEMENT_THEORY":"SGP4","APOAPSIS":"541.851","EPOCH":"2022-11-27T20:55:04.201824","TIME_SYSTEM":"UTC"},{"PERIOD":"95.438","FILE":"3671921","SITE":"AFETR","DECAY_DATE":null,"MEAN_MOTION_DDOT":"0.0000000000000","SEMIMAJOR_AXIS":"6917.880","NORAD_CAT_ID":"51755","TLE_LINE1":"1 51755U 22016AT  22331.87429799 -.00000403  00000-0 -71802-5 0  9992","GP_ID":"218992170","COUNTRY_CODE":"US","RA_OF_ASC_NODE":"286.3317","TIME_SYSTEM":"UTC","EPOCH":"2022-11-27T20:58:59.346336","REV_AT_EPOCH":"4287","MEAN_ELEMENT_THEORY":"SGP4","APOAPSIS":"541.895","CENTER_NAME":"EARTH","OBJECT_TYPE":"PAYLOAD","OBJECT_NAME":"STARLINK-3460","REF_FRAME":"TEME","ARG_OF_PERICENTER":"32.9057","RCS_SIZE":"MEDIUM","EPHEMERIS_TYPE":"0","CLASSIFICATION_TYPE":"U","OBJECT_ID":"2022-016AT","ELEMENT_SET_NO":"999","MEAN_ANOMALY":"327.2128","PERIAPSIS":"537.596","BSTAR":"-0.00000718020000","TLE_LINE2":"2 51755  53.2169 286.3317 0003107  32.9057 327.2128 15.08840077 42874","MEAN_MOTION_DOT":"-0.00000403","LAUNCH_DATE":"2022-02-21","INCLINATION":"53.2169","ECCENTRICITY":"0.00031070","MEAN_MOTION":"15.08840077"},{"MEAN_ANOMALY":"327.5382","ELEMENT_SET_NO":"999","OBJECT_ID":"2022-016AU","EPHEMERIS_TYPE":"0","CLASSIFICATION_TYPE":"U","RCS_SIZE":"LARGE","ARG_OF_PERICENTER":"32.5777","REF_FRAME":"TEME","OBJECT_NAME":"STARLINK-3513","MEAN_MOTION":"15.08835418","ECCENTRICITY":"0.00027150","INCLINATION":"53.2169","LAUNCH_DATE":"2022-02-21","TLE_LINE2":"2 51756  53.2169 287.9550 0002715  32.5777 327.5382 15.08835418 43891","MEAN_MOTION_DOT":"-0.00000327","BSTAR":"-0.00000240450000","PERIAPSIS":"537.881","TLE_LINE1":"1 51756U 22016AU  22331.51365726 -.00000327  00000-0 -24045-5 0  9995","NORAD_CAT_ID":"51756","SEMIMAJOR_AXIS":"6917.894","DECAY_DATE":null,"SITE":"AFETR","MEAN_MOTION_DDOT":"0.0000000000000","PERIOD":"95.438","FILE":"3671583","OBJECT_TYPE":"PAYLOAD","CENTER_NAME":"EARTH","APOAPSIS":"541.638","MEAN_ELEMENT_THEORY":"SGP4","REV_AT_EPOCH":"4389","TIME_SYSTEM":"UTC","EPOCH":"2022-11-27T12:19:39.987264","RA_OF_ASC_NODE":"287.9550","COUNTRY_CODE":"US","GP_ID":"218934101"},{"PERIAPSIS":"537.535","BSTAR":"-0.00008982600000","TLE_LINE2":"2 51757  53.2194 287.6753 0003237  38.2588 321.8634 15.08830608 42831","MEAN_MOTION_DOT":"-0.00001718","INCLINATION":"53.2194","LAUNCH_DATE":"2022-02-21","MEAN_MOTION":"15.08830608","ECCENTRICITY":"0.00032370","OBJECT_NAME":"STARLINK-3459","REF_FRAME":"TEME","RCS_SIZE":"LARGE","ARG_OF_PERICENTER":"38.2588","OBJECT_ID":"2022-016AV","CLASSIFICATION_TYPE":"U","EPHEMERIS_TYPE":"0","ELEMENT_SET_NO":"999","MEAN_ANOMALY":"321.8634","COUNTRY_CODE":"US","GP_ID":"218991669","RA_OF_ASC_NODE":"287.6753","EPOCH":"2022-11-27T13:49:45.614496","TIME_SYSTEM":"UTC","MEAN_ELEMENT_THEORY":"SGP4","APOAPSIS":"542.013","REV_AT_EPOCH":"4283","OBJECT_TYPE":"PAYLOAD","CENTER_NAME":"EARTH","PERIOD":"95.438","FILE":"3671921","DECAY_DATE":null,"MEAN_MOTION_DDOT":"0.0000000000000","SITE":"AFETR","SEMIMAJOR_AXIS":"6917.909","NORAD_CAT_ID":"51757","TLE_LINE1":"1 51757U 22016AV  22331.57622239 -.00001718  00000-0 -89826-4 0  9999"}];
